[{"OBJECT_NAME":"STARLINK-1434","OBJECT_ID":"2020-035BH","EPOCH":"2026-03-09T05:47:35.213856","MEAN_MOTION":15.26724568,"ECCENTRICITY":0.00053438,"INCLINATION":53.0547,"RA_OF_ASC_NODE":22.1128,"ARG_OF_PERICENTER":88.04,"MEAN_ANOMALY":272.121,"EPHEMERIS_TYPE":0,"CLASSIFICATION_TYPE":"U","NORAD_CAT_ID":45712,"ELEMENT_SET_NO":999,"REV_AT_EPOCH":31932,"BSTAR":0.0020295208,"MEAN_MOTION_DOT":0.00054112,"MEAN_MOTION_DDOT":0},{"OBJECT_NAME":"STARLINK-33923","OBJECT_ID":"2025-091M","EPOCH":"2026-03-09T23:12:43.789536","MEAN_MOTION":15.27567386,"ECCENTRICITY":9.295e-5,"INCLINATION":42.9977,"RA_OF_ASC_NODE":51.0479,"ARG_OF_PERICENTER":296.324,"MEAN_ANOMALY":63.7517,"EPHEMERIS_TYPE":0,"CLASSIFICATION_TYPE":"U","NORAD_CAT_ID":63786,"ELEMENT_SET_NO":999,"REV_AT_EPOCH":4889,"BSTAR":0.00087343623,"MEAN_MOTION_DOT":0.00023841,"MEAN_MOTION_DDOT":0}]
